start=new Date('2022-01-14T00:00:00.000Z').valueOf();
sats=[{"REV_AT_EPOCH":"7100","LAUNCH_DATE":"2020-10-06","ARG_OF_PERICENTER":"85.6983","SEMIMAJOR_AXIS":"6925.363","MEAN_MOTION":"15.06395157","COUNTRY_CODE":"US","OBJECT_ID":"2020-070AA","MEAN_ANOMALY":"274.4202","TIME_SYSTEM":"UTC","OBJECT_TYPE":"PAYLOAD","RCS_SIZE":"LARGE","MEAN_ELEMENT_THEORY":"SGP4","EPOCH":"2022-01-13T15:40:39.465984","NORAD_CAT_ID":"46556","TLE_LINE1":"1 46556U 20070AA  22013.65323456  .00002001  00000-0  15319-3 0  9992","CENTER_NAME":"EARTH","RA_OF_ASC_NODE":"142.3809","PERIOD":"95.592","MEAN_MOTION_DDOT":"0.0000000000000","EPHEMERIS_TYPE":"0","SITE":"AFETR","CLASSIFICATION_TYPE":"U","DECAY_DATE":null,"ELEMENT_SET_NO":"999","MEAN_MOTION_DOT":"0.00002001","PERIAPSIS":"546.045","TLE_LINE2":"2 46556  53.0552 142.3809 0001709  85.6983 274.4202 15.06395157 71002","OBJECT_NAME":"STARLINK-1676","GP_ID":"193810656","APOAPSIS":"548.412","FILE":"3272312","ECCENTRICITY":"0.00017090","INCLINATION":"53.0552","BSTAR":"0.00015319000000","REF_FRAME":"TEME"},{"GP_ID":"193811908","APOAPSIS":"548.251","ECCENTRICITY":"0.00014870","FILE":"3272312","BSTAR":"0.00014032000000","INCLINATION":"53.0548","REF_FRAME":"TEME","PERIOD":"95.592","MEAN_MOTION_DDOT":"0.0000000000000","EPHEMERIS_TYPE":"0","MEAN_MOTION_DOT":"0.00001809","ELEMENT_SET_NO":"999","DECAY_DATE":null,"SITE":"AFETR","CLASSIFICATION_TYPE":"U","OBJECT_NAME":"STARLINK-1679","TLE_LINE2":"2 46557  53.0548 126.5811 0001487  99.0768 261.0389 15.06397636 71246","PERIAPSIS":"546.191","OBJECT_ID":"2020-070AB","MEAN_ANOMALY":"261.0389","RCS_SIZE":"LARGE","OBJECT_TYPE":"PAYLOAD","TIME_SYSTEM":"UTC","RA_OF_ASC_NODE":"126.5811","CENTER_NAME":"EARTH","TLE_LINE1":"1 46557U 20070AB  22013.82969529  .00001809  00000-0  14032-3 0  9995","NORAD_CAT_ID":"46557","MEAN_ELEMENT_THEORY":"SGP4","EPOCH":"2022-01-13T19:54:45.673056","REV_AT_EPOCH":"7124","LAUNCH_DATE":"2020-10-06","COUNTRY_CODE":"US","MEAN_MOTION":"15.06397636","ARG_OF_PERICENTER":"99.0768","SEMIMAJOR_AXIS":"6925.356"},{"RA_OF_ASC_NODE":"126.8401","EPOCH":"2022-01-13T18:29:50.115552","MEAN_ELEMENT_THEORY":"SGP4","TLE_LINE1":"1 46558U 20070AC  22013.77071893  .00003081  00000-0  22562-3 0  9999","CENTER_NAME":"EARTH","NORAD_CAT_ID":"46558","RCS_SIZE":"LARGE","OBJECT_TYPE":"PAYLOAD","TIME_SYSTEM":"UTC","MEAN_ANOMALY":"268.3636","OBJECT_ID":"2020-070AC","SEMIMAJOR_AXIS":"6925.340","ARG_OF_PERICENTER":"91.7500","COUNTRY_CODE":"US","MEAN_MOTION":"15.06402707","LAUNCH_DATE":"2020-10-06","REV_AT_EPOCH":"7120","REF_FRAME":"TEME","BSTAR":"0.00022562000000","INCLINATION":"53.0536","ECCENTRICITY":"0.00012920","FILE":"3272312","APOAPSIS":"548.100","GP_ID":"193812159","OBJECT_NAME":"STARLINK-1680","PERIAPSIS":"546.311","TLE_LINE2":"2 46558  53.0536 126.8401 0001292  91.7500 268.3636 15.06402707 71206","ELEMENT_SET_NO":"999","MEAN_MOTION_DOT":"0.00003081","SITE":"AFETR","CLASSIFICATION_TYPE":"U","DECAY_DATE":null,"EPHEMERIS_TYPE":"0","MEAN_MOTION_DDOT":"0.0000000000000","PERIOD":"95.592"},{"OBJECT_NAME":"STARLINK-1681","TLE_LINE2":"2 46559  53.0549 111.8925 0001312  89.6488 270.4651 15.06395118 71433","PERIAPSIS":"546.320","MEAN_MOTION_DOT":"0.00000367","ELEMENT_SET_NO":"999","DECAY_DATE":null,"CLASSIFICATION_TYPE":"U","SITE":"AFETR","EPHEMERIS_TYPE":"0","MEAN_MOTION_DDOT":"0.0000000000000","PERIOD":"95.592","REF_FRAME":"TEME","BSTAR":"0.00004353000000","INCLINATION":"53.0549","ECCENTRICITY":"0.00013120","FILE":"3272312","APOAPSIS":"548.137","GP_ID":"193810907","MEAN_MOTION":"15.06395118","COUNTRY_CODE":"US","SEMIMAJOR_AXIS":"6925.364","ARG_OF_PERICENTER":"89.6488","LAUNCH_DATE":"2020-10-06","REV_AT_EPOCH":"7143","RA_OF_ASC_NODE":"111.8925","TLE_LINE1":"1 46559U 20070AD  22013.75920776  .00000367  00000-0  43530-4 0  9994","CENTER_NAME":"EARTH","NORAD_CAT_ID":"46559","MEAN_ELEMENT_THEORY":"SGP4","EPOCH":"2022-01-13T18:13:15.550464","RCS_SIZE":"LARGE","OBJECT_TYPE":"PAYLOAD","TIME_SYSTEM":"UTC","MEAN_ANOMALY":"270.4651","OBJECT_ID":"2020-070AD"},{"TIME_SYSTEM":"UTC","OBJECT_TYPE":"PAYLOAD","RCS_SIZE":"LARGE","EPOCH":"2022-01-13T14:04:27.210720","MEAN_ELEMENT_THEORY":"SGP4","TLE_LINE1":"1 46560U 20070AE  22013.58642605  .00000592  00000-0  58634-4 0  9990","NORAD_CAT_ID":"46560","CENTER_NAME":"EARTH","RA_OF_ASC_NODE":"127.6737","OBJECT_ID":"2020-070AE","MEAN_ANOMALY":"267.0245","LAUNCH_DATE":"2020-10-06","ARG_OF_PERICENTER":"93.0893","SEMIMAJOR_AXIS":"6925.373","COUNTRY_CODE":"US","MEAN_MOTION":"15.06392070","REV_AT_EPOCH":"7120","INCLINATION":"53.0529","BSTAR":"0.00005863400000","REF_FRAME":"TEME","APOAPSIS":"548.135","GP_ID":"193779355","FILE":"3271980","ECCENTRICITY":"0.00012960","CLASSIFICATION_TYPE":"U","SITE":"AFETR","DECAY_DATE":null,"ELEMENT_SET_NO":"999","MEAN_MOTION_DOT":"0.00000592","PERIAPSIS":"546.340","TLE_LINE2":"2 46560  53.0529 127.6737 0001296  93.0893 267.0245 15.06392070 71209","OBJECT_NAME":"STARLINK-1706","PERIOD":"95.593","MEAN_MOTION_DDOT":"0.0000000000000","EPHEMERIS_TYPE":"0"},{"LAUNCH_DATE":"2020-10-06","COUNTRY_CODE":"US","MEAN_MOTION":"15.06394681","SEMIMAJOR_AXIS":"6925.365","ARG_OF_PERICENTER":"95.8324","REV_AT_EPOCH":"7123","OBJECT_TYPE":"PAYLOAD","TIME_SYSTEM":"UTC","RCS_SIZE":"LARGE","TLE_LINE1":"1 46561U 20070AF  22013.80020719  .00002009  00000-0  15372-3 0  9998","CENTER_NAME":"EARTH","NORAD_CAT_ID":"46561","EPOCH":"2022-01-13T19:12:17.901216","MEAN_ELEMENT_THEORY":"SGP4","RA_OF_ASC_NODE":"126.7198","OBJECT_ID":"2020-070AF","MEAN_ANOMALY":"264.2827","DECAY_DATE":null,"CLASSIFICATION_TYPE":"U","SITE":"AFETR","MEAN_MOTION_DOT":"0.00002009","ELEMENT_SET_NO":"999","TLE_LINE2":"2 46561  53.0550 126.7198 0001417  95.8324 264.2827 15.06394681 71237","PERIAPSIS":"546.249","OBJECT_NAME":"STARLINK-1709","MEAN_MOTION_DDOT":"0.0000000000000","PERIOD":"95.592","EPHEMERIS_TYPE":"0","INCLINATION":"53.0550","BSTAR":"0.00015372000000","REF_FRAME":"TEME","GP_ID":"193811408","APOAPSIS":"548.211","FILE":"3272312","ECCENTRICITY":"0.00014170"},{"LAUNCH_DATE":"2020-10-06","COUNTRY_CODE":"US","MEAN_MOTION":"15.06401767","SEMIMAJOR_AXIS":"6925.343","ARG_OF_PERICENTER":"98.3227","REV_AT_EPOCH":"7130","RCS_SIZE":"LARGE","TIME_SYSTEM":"UTC","OBJECT_TYPE":"PAYLOAD","RA_OF_ASC_NODE":"121.7058","NORAD_CAT_ID":"46562","TLE_LINE1":"1 46562U 20070AG  22013.80250974  .00000477  00000-0  50944-4 0  9999","CENTER_NAME":"EARTH","EPOCH":"2022-01-13T19:15:36.841536","MEAN_ELEMENT_THEORY":"SGP4","OBJECT_ID":"2020-070AG","MEAN_ANOMALY":"261.7952","MEAN_MOTION_DOT":"0.00000477","ELEMENT_SET_NO":"999","DECAY_DATE":null,"SITE":"AFETR","CLASSIFICATION_TYPE":"U","OBJECT_NAME":"STARLINK-1714","PERIAPSIS":"546.047","TLE_LINE2":"2 46562  53.0551 121.7058 0001677  98.3227 261.7952 15.06401767 71300","MEAN_MOTION_DDOT":"0.0000000000000","PERIOD":"95.592","EPHEMERIS_TYPE":"0","BSTAR":"0.00005094400000","INCLINATION":"53.0551","REF_FRAME":"TEME","APOAPSIS":"548.370","GP_ID":"193811659","FILE":"3272312","ECCENTRICITY":"0.00016770"},{"EPHEMERIS_TYPE":"0","MEAN_MOTION_DDOT":"0.0000000000000","PERIOD":"95.592","PERIAPSIS":"546.317","TLE_LINE2":"2 46563  53.0556 122.6643 0001284  81.4741 278.6393 15.06402374 71282","OBJECT_NAME":"STARLINK-1730","SITE":"AFETR","CLASSIFICATION_TYPE":"U","DECAY_DATE":null,"ELEMENT_SET_NO":"999","MEAN_MOTION_DOT":"0.00000703","FILE":"3272061","ECCENTRICITY":"0.00012840","GP_ID":"193784893","APOAPSIS":"548.095","REF_FRAME":"TEME","INCLINATION":"53.0556","BSTAR":"0.00006605900000","REV_AT_EPOCH":"7128","ARG_OF_PERICENTER":"81.4741","SEMIMAJOR_AXIS":"6925.341","COUNTRY_CODE":"US","MEAN_MOTION":"15.06402374","LAUNCH_DATE":"2020-10-06","MEAN_ANOMALY":"278.6393","OBJECT_ID":"2020-070AH","EPOCH":"2022-01-13T14:02:27.189024","MEAN_ELEMENT_THEORY":"SGP4","NORAD_CAT_ID":"46563","TLE_LINE1":"1 46563U 20070AH  22013.58503691  .00000703  00000-0  66059-4 0  9998","CENTER_NAME":"EARTH","RA_OF_ASC_NODE":"122.6643","TIME_SYSTEM":"UTC","OBJECT_TYPE":"PAYLOAD","RCS_SIZE":"LARGE"},{"REV_AT_EPOCH":"7130","MEAN_MOTION":"15.06393689","COUNTRY_CODE":"US","SEMIMAJOR_AXIS":"6925.368","ARG_OF_PERICENTER":"98.9264","LAUNCH_DATE":"2020-10-06","MEAN_ANOMALY":"261.1896","OBJECT_ID":"2020-070AJ","TLE_LINE1":"1 46564U 20070AJ  22013.76565534  .00000945  00000-0  82361-4 0  9995","NORAD_CAT_ID":"46564","CENTER_NAME":"EARTH","EPOCH":"2022-01-13T18:22:32.621376","MEAN_ELEMENT_THEORY":"SGP4","RA_OF_ASC_NODE":"121.8754","TIME_SYSTEM":"UTC","OBJECT_TYPE":"PAYLOAD","RCS_SIZE":"LARGE","EPHEMERIS_TYPE":"0","MEAN_MOTION_DDOT":"0.0000000000000","PERIOD":"95.593","TLE_LINE2":"2 46564  53.0553 121.8754 0001508  98.9264 261.1896 15.06393689 71302","PERIAPSIS":"546.189","OBJECT_NAME":"STARLINK-1733","DECAY_DATE":null,"SITE":"AFETR","CLASSIFICATION_TYPE":"U","MEAN_MOTION_DOT":"0.00000945","ELEMENT_SET_NO":"999","ECCENTRICITY":"0.00015080","FILE":"3272312","APOAPSIS":"548.277","GP_ID":"193810657","REF_FRAME":"TEME","INCLINATION":"53.0553","BSTAR":"0.00008236100000"},{"PERIOD":"95.592","MEAN_MOTION_DDOT":"0.0000000000000","EPHEMERIS_TYPE":"0","ELEMENT_SET_NO":"999","MEAN_MOTION_DOT":"0.00002257","CLASSIFICATION_TYPE":"U","SITE":"AFETR","DECAY_DATE":null,"OBJECT_NAME":"STARLINK-1735","PERIAPSIS":"546.289","TLE_LINE2":"2 46565  53.0605 121.6562 0001351  88.1889 271.9255 15.06396304 71301","GP_ID":"193811909","APOAPSIS":"548.161","ECCENTRICITY":"0.00013510","FILE":"3272312","BSTAR":"0.00017039000000","INCLINATION":"53.0605","REF_FRAME":"TEME","REV_AT_EPOCH":"7130","LAUNCH_DATE":"2020-10-06","ARG_OF_PERICENTER":"88.1889","SEMIMAJOR_AXIS":"6925.360","MEAN_MOTION":"15.06396304","COUNTRY_CODE":"US","OBJECT_ID":"2020-070AK","MEAN_ANOMALY":"271.9255","RCS_SIZE":"LARGE","TIME_SYSTEM":"UTC","OBJECT_TYPE":"PAYLOAD","RA_OF_ASC_NODE":"121.6562","EPOCH":"2022-01-13T19:26:14.226432","MEAN_ELEMENT_THEORY":"SGP4","CENTER_NAME":"EARTH","TLE_LINE1":"1 46565U 20070AK  22013.80988688  .00002257  00000-0  17039-3 0  9997","NORAD_CAT_ID":"46565"}];
